start=new Date('2023-06-15T00:00:00.000Z').valueOf();
sats=[{"ECCENTRICITY":"0.00013320","BSTAR":"-0.00002718800000","MEAN_ELEMENT_THEORY":"SGP4","TLE_LINE2":"2 49426  53.2177  33.9843 0001332  87.4853 272.6292 15.08840043 87802","SEMIMAJOR_AXIS":"6917.880","MEAN_MOTION_DOT":"-0.00000721","MEAN_MOTION_DDOT":"0.0000000000000","MEAN_ANOMALY":"272.6292","FILE":"3933215","APOAPSIS":"540.667","MEAN_MOTION":"15.08840043","COUNTRY_CODE":"US","EPOCH":"2023-06-14T15:35:36.534624","ARG_OF_PERICENTER":"87.4853","REV_AT_EPOCH":"8780","RCS_SIZE":"LARGE","NORAD_CAT_ID":"49426","EPHEMERIS_TYPE":"0","REF_FRAME":"TEME","LAUNCH_DATE":"2021-11-13","INCLINATION":"53.2177","OBJECT_TYPE":"PAYLOAD","CLASSIFICATION_TYPE":"U","ELEMENT_SET_NO":"999","PERIAPSIS":"538.824","OBJECT_NAME":"STARLINK-3114","TIME_SYSTEM":"UTC","SITE":"AFETR","RA_OF_ASC_NODE":"33.9843","CENTER_NAME":"EARTH","GP_ID":"233944849","OBJECT_ID":"2021-104U","DECAY_DATE":null,"PERIOD":"95.438","TLE_LINE1":"1 49426U 21104U   23165.64972841 -.00000721  00000-0 -27188-4 0  9993"},{"REV_AT_EPOCH":"8785","RCS_SIZE":"LARGE","NORAD_CAT_ID":"49427","ARG_OF_PERICENTER":"83.8385","EPOCH":"2023-06-14T21:42:37.692288","MEAN_MOTION":"15.08839971","FILE":"3933215","APOAPSIS":"540.545","COUNTRY_CODE":"US","MEAN_MOTION_DDOT":"0.0000000000000","MEAN_ANOMALY":"276.2739","TLE_LINE2":"2 49427  53.2177  32.8508 0001156  83.8385 276.2739 15.08839971 87852","MEAN_ELEMENT_THEORY":"SGP4","MEAN_MOTION_DOT":"0.00000942","SEMIMAJOR_AXIS":"6917.880","BSTAR":"0.00007727700000","ECCENTRICITY":"0.00011560","PERIOD":"95.438","TLE_LINE1":"1 49427U 21104V   23165.90460292  .00000942  00000-0  77277-4 0  9992","GP_ID":"233946101","OBJECT_ID":"2021-104V","CENTER_NAME":"EARTH","DECAY_DATE":null,"SITE":"AFETR","RA_OF_ASC_NODE":"32.8508","PERIAPSIS":"538.946","TIME_SYSTEM":"UTC","OBJECT_NAME":"STARLINK-3131","LAUNCH_DATE":"2021-11-13","INCLINATION":"53.2177","OBJECT_TYPE":"PAYLOAD","ELEMENT_SET_NO":"999","CLASSIFICATION_TYPE":"U","EPHEMERIS_TYPE":"0","REF_FRAME":"TEME"},{"ARG_OF_PERICENTER":"86.3336","EPOCH":"2023-06-14T18:15:58.252032","MEAN_MOTION":"15.08829590","FILE":"3933215","APOAPSIS":"540.510","COUNTRY_CODE":"US","REV_AT_EPOCH":"8783","RCS_SIZE":"LARGE","NORAD_CAT_ID":"49428","TLE_LINE2":"2 49428  53.2187  33.4827 0001059  86.3336 273.7777 15.08829590 87839","MEAN_ELEMENT_THEORY":"SGP4","MEAN_MOTION_DOT":"0.00002451","SEMIMAJOR_AXIS":"6917.912","BSTAR":"0.00017208000000","ECCENTRICITY":"0.00010590","MEAN_MOTION_DDOT":"0.0000000000000","MEAN_ANOMALY":"273.7777","PERIOD":"95.438","TLE_LINE1":"1 49428U 21104W   23165.76109088  .00002451  00000-0  17208-3 0  9994","OBJECT_ID":"2021-104W","GP_ID":"233945850","CENTER_NAME":"EARTH","DECAY_DATE":null,"LAUNCH_DATE":"2021-11-13","INCLINATION":"53.2187","OBJECT_TYPE":"PAYLOAD","CLASSIFICATION_TYPE":"U","ELEMENT_SET_NO":"999","EPHEMERIS_TYPE":"0","REF_FRAME":"TEME","RA_OF_ASC_NODE":"33.4827","SITE":"AFETR","PERIAPSIS":"539.045","TIME_SYSTEM":"UTC","OBJECT_NAME":"STARLINK-3121"},{"TLE_LINE1":"1 49430U 21104Y   23165.89996453  .00001445  00000-0  10885-3 0  9997","PERIOD":"95.437","DECAY_DATE":null,"CENTER_NAME":"EARTH","GP_ID":"233944599","OBJECT_ID":"2021-104Y","SITE":"AFETR","RA_OF_ASC_NODE":"32.8602","OBJECT_NAME":"STARLINK-3138","TIME_SYSTEM":"UTC","PERIAPSIS":"538.845","ELEMENT_SET_NO":"999","CLASSIFICATION_TYPE":"U","LAUNCH_DATE":"2021-11-13","OBJECT_TYPE":"PAYLOAD","INCLINATION":"53.2186","REF_FRAME":"TEME","EPHEMERIS_TYPE":"0","NORAD_CAT_ID":"49430","RCS_SIZE":"LARGE","REV_AT_EPOCH":"8785","EPOCH":"2023-06-14T21:35:56.935392","ARG_OF_PERICENTER":"87.9331","COUNTRY_CODE":"US","APOAPSIS":"540.619","FILE":"3933215","MEAN_MOTION":"15.08844402","MEAN_ANOMALY":"272.1808","MEAN_MOTION_DDOT":"0.0000000000000","SEMIMAJOR_AXIS":"6917.867","MEAN_MOTION_DOT":"0.00001445","MEAN_ELEMENT_THEORY":"SGP4","TLE_LINE2":"2 49430  53.2186  32.8602 0001282  87.9331 272.1808 15.08844402 87854","ECCENTRICITY":"0.00012820","BSTAR":"0.00010885000000"},{"EPHEMERIS_TYPE":"0","REF_FRAME":"TEME","INCLINATION":"53.2180","LAUNCH_DATE":"2021-11-13","OBJECT_TYPE":"PAYLOAD","CLASSIFICATION_TYPE":"U","ELEMENT_SET_NO":"999","PERIAPSIS":"539.025","TIME_SYSTEM":"UTC","OBJECT_NAME":"STARLINK-3153","SITE":"AFETR","RA_OF_ASC_NODE":"33.1848","OBJECT_ID":"2021-104Z","GP_ID":"233945350","CENTER_NAME":"EARTH","DECAY_DATE":null,"PERIOD":"95.438","TLE_LINE1":"1 49431U 21104Z   23165.88528279  .00000726  00000-0  63690-4 0  9998","BSTAR":"0.00006369000000","ECCENTRICITY":"0.00010770","TLE_LINE2":"2 49431  53.2180  33.1848 0001077  85.9937 274.1178 15.08832083 87840","MEAN_ELEMENT_THEORY":"SGP4","MEAN_MOTION_DOT":"0.00000726","SEMIMAJOR_AXIS":"6917.905","MEAN_MOTION_DDOT":"0.0000000000000","MEAN_ANOMALY":"274.1178","MEAN_MOTION":"15.08832083","FILE":"3933215","APOAPSIS":"540.515","COUNTRY_CODE":"US","ARG_OF_PERICENTER":"85.9937","EPOCH":"2023-06-14T21:14:48.433056","REV_AT_EPOCH":"8784","NORAD_CAT_ID":"49431","RCS_SIZE":"LARGE"},{"RCS_SIZE":"LARGE","NORAD_CAT_ID":"49432","REV_AT_EPOCH":"8798","COUNTRY_CODE":"US","MEAN_MOTION":"15.08835252","APOAPSIS":"540.496","FILE":"3933215","ARG_OF_PERICENTER":"87.7307","EPOCH":"2023-06-14T20:45:40.235328","MEAN_ANOMALY":"272.3807","MEAN_MOTION_DDOT":"0.0000000000000","BSTAR":"0.00030379000000","ECCENTRICITY":"0.00010640","MEAN_MOTION_DOT":"0.00004550","SEMIMAJOR_AXIS":"6917.895","TLE_LINE2":"2 49432  53.2169  23.0200 0001064  87.7307 272.3807 15.08835252 87980","MEAN_ELEMENT_THEORY":"SGP4","DECAY_DATE":null,"GP_ID":"233945601","OBJECT_ID":"2021-104AA","CENTER_NAME":"EARTH","TLE_LINE1":"1 49432U 21104AA  23165.86504902  .00004550  00000-0  30379-3 0  9990","PERIOD":"95.438","TIME_SYSTEM":"UTC","OBJECT_NAME":"STARLINK-3158","PERIAPSIS":"539.024","RA_OF_ASC_NODE":"23.0200","SITE":"AFETR","REF_FRAME":"TEME","EPHEMERIS_TYPE":"0","CLASSIFICATION_TYPE":"U","ELEMENT_SET_NO":"999","OBJECT_TYPE":"PAYLOAD","LAUNCH_DATE":"2021-11-13","INCLINATION":"53.2169"},{"PERIAPSIS":"538.952","TIME_SYSTEM":"UTC","OBJECT_NAME":"STARLINK-3079","SITE":"AFETR","RA_OF_ASC_NODE":"13.0180","EPHEMERIS_TYPE":"0","REF_FRAME":"TEME","LAUNCH_DATE":"2021-11-13","OBJECT_TYPE":"PAYLOAD","INCLINATION":"53.2183","CLASSIFICATION_TYPE":"U","ELEMENT_SET_NO":"999","OBJECT_ID":"2021-104AB","GP_ID":"233946351","CENTER_NAME":"EARTH","DECAY_DATE":null,"PERIOD":"95.438","TLE_LINE1":"1 49433U 21104AB  23165.86501095  .00000047  00000-0  21028-4 0  9990","MEAN_MOTION_DDOT":"0.0000000000000","MEAN_ANOMALY":"268.2908","BSTAR":"0.00002102800000","ECCENTRICITY":"0.00011790","TLE_LINE2":"2 49433  53.2183  13.0180 0001179  91.8219 268.2908 15.08832613 89210","MEAN_ELEMENT_THEORY":"SGP4","MEAN_MOTION_DOT":"0.00000047","SEMIMAJOR_AXIS":"6917.903","REV_AT_EPOCH":"8921","RCS_SIZE":"LARGE","NORAD_CAT_ID":"49433","MEAN_MOTION":"15.08832613","APOAPSIS":"540.584","FILE":"3933215","COUNTRY_CODE":"US","ARG_OF_PERICENTER":"91.8219","EPOCH":"2023-06-14T20:45:36.946080"},{"PERIOD":"95.437","TLE_LINE1":"1 49434U 21104AC  23165.89724492  .00000689  00000-0  61386-4 0  9995","CENTER_NAME":"EARTH","GP_ID":"233945100","OBJECT_ID":"2021-104AC","DECAY_DATE":null,"INCLINATION":"53.2178","LAUNCH_DATE":"2021-11-13","OBJECT_TYPE":"PAYLOAD","CLASSIFICATION_TYPE":"U","ELEMENT_SET_NO":"999","EPHEMERIS_TYPE":"0","REF_FRAME":"TEME","RA_OF_ASC_NODE":"32.8850","SITE":"AFETR","PERIAPSIS":"538.994","OBJECT_NAME":"STARLINK-3134","TIME_SYSTEM":"UTC","EPOCH":"2023-06-14T21:32:01.961088","ARG_OF_PERICENTER":"86.3160","FILE":"3933215","APOAPSIS":"540.487","MEAN_MOTION":"15.08841599","COUNTRY_CODE":"US","REV_AT_EPOCH":"8893","RCS_SIZE":"LARGE","NORAD_CAT_ID":"49434","MEAN_ELEMENT_THEORY":"SGP4","TLE_LINE2":"2 49434  53.2178  32.8850 0001079  86.3160 273.7956 15.08841599 88936","SEMIMAJOR_AXIS":"6917.876","MEAN_MOTION_DOT":"0.00000689","ECCENTRICITY":"0.00010790","BSTAR":"0.00006138600000","MEAN_MOTION_DDOT":"0.0000000000000","MEAN_ANOMALY":"273.7956"},{"EPHEMERIS_TYPE":"0","REF_FRAME":"TEME","LAUNCH_DATE":"2021-11-13","INCLINATION":"53.2168","OBJECT_TYPE":"PAYLOAD","CLASSIFICATION_TYPE":"U","ELEMENT_SET_NO":"999","PERIAPSIS":"538.850","TIME_SYSTEM":"UTC","OBJECT_NAME":"STARLINK-3117","SITE":"AFETR","RA_OF_ASC_NODE":"14.1901","GP_ID":"233923481","OBJECT_ID":"2021-104AD","CENTER_NAME":"EARTH","DECAY_DATE":null,"PERIOD":"95.438","TLE_LINE1":"1 49435U 21104AD  23165.60468919  .00000651  00000-0  58988-4 0  9997","BSTAR":"0.00005898800000","ECCENTRICITY":"0.00013290","TLE_LINE2":"2 49435  53.2168  14.1901 0001329  90.3264 269.7881 15.08832004 89163","MEAN_ELEMENT_THEORY":"SGP4","MEAN_MOTION_DOT":"0.00000651","SEMIMAJOR_AXIS":"6917.905","MEAN_MOTION_DDOT":"0.0000000000000","MEAN_ANOMALY":"269.7881","MEAN_MOTION":"15.08832004","APOAPSIS":"540.689","FILE":"3933174","COUNTRY_CODE":"US","ARG_OF_PERICENTER":"90.3264","EPOCH":"2023-06-14T14:30:45.146016","REV_AT_EPOCH":"8916","NORAD_CAT_ID":"49435","RCS_SIZE":"LARGE"},{"GP_ID":"233946102","OBJECT_ID":"2021-104AE","CENTER_NAME":"EARTH","DECAY_DATE":null,"PERIOD":"95.438","TLE_LINE1":"1 49436U 21104AE  23165.86868581  .00000665  00000-0  59895-4 0  9998","EPHEMERIS_TYPE":"0","REF_FRAME":"TEME","INCLINATION":"53.2183","LAUNCH_DATE":"2021-11-13","OBJECT_TYPE":"PAYLOAD","CLASSIFICATION_TYPE":"U","ELEMENT_SET_NO":"999","PERIAPSIS":"538.896","TIME_SYSTEM":"UTC","OBJECT_NAME":"STARLINK-3049","SITE":"AFETR","RA_OF_ASC_NODE":"13.0019","MEAN_MOTION":"15.08839116","APOAPSIS":"540.600","FILE":"3933215","COUNTRY_CODE":"US","ARG_OF_PERICENTER":"88.9034","EPOCH":"2023-06-14T20:50:54.453984","REV_AT_EPOCH":"8812","RCS_SIZE":"LARGE","NORAD_CAT_ID":"49436","BSTAR":"0.00005989500000","ECCENTRICITY":"0.00012320","TLE_LINE2":"2 49436  53.2183  13.0019 0001232  88.9034 271.2099 15.08839116 88125","MEAN_ELEMENT_THEORY":"SGP4","MEAN_MOTION_DOT":"0.00000665","SEMIMAJOR_AXIS":"6917.883","MEAN_MOTION_DDOT":"0.0000000000000","MEAN_ANOMALY":"271.2099"}];
